CCSDS_OMM_VERS = 2.0
CREATION_DATE  = 
ORIGINATOR     = 

OBJECT_NAME    = ATLAS CENTAUR R/B
OBJECT_ID      = 1972-065B
CENTER_NAME    = EARTH
REF_FRAME      = TEME
TIME_SYSTEM    = UTC
MEAN_ELEMENT_THEORY = SGP/SGP4

EPOCH          = 2026-01-04T13:38:41.180352
MEAN_MOTION    = 14.77483428
ECCENTRICITY   = .0034102
INCLINATION    = 35.0032
RA_OF_ASC_NODE = 321.4683
ARG_OF_PERICENTER = 192.1355
MEAN_ANOMALY   = 167.8526

EPHEMERIS_TYPE = 0
CLASSIFICATION_TYPE = U
NORAD_CAT_ID   = 6155
ELEMENT_SET_NO = 999
REV_AT_EPOCH   = 83177
BSTAR          = .25506E-3
MEAN_MOTION_DOT = .1843E-4
MEAN_MOTION_DDOT = 0

CCSDS_OMM_VERS = 2.0
CREATION_DATE  = 
ORIGINATOR     = 

OBJECT_NAME    = SL-8 R/B
OBJECT_ID      = 1975-112B
CENTER_NAME    = EARTH
REF_FRAME      = TEME
TIME_SYSTEM    = UTC
MEAN_ELEMENT_THEORY = SGP/SGP4

EPOCH          = 2026-01-04T18:51:43.564896
MEAN_MOTION    = 14.38163973
ECCENTRICITY   = .00166729
INCLINATION    = 74.0609
RA_OF_ASC_NODE = 136.4678
ARG_OF_PERICENTER = 245.6074
MEAN_ANOMALY   = 114.3341

EPHEMERIS_TYPE = 0
CLASSIFICATION_TYPE = U
NORAD_CAT_ID   = 8459
ELEMENT_SET_NO = 999
REV_AT_EPOCH   = 62268
BSTAR          = .15804888E-3
MEAN_MOTION_DOT = .454E-5
MEAN_MOTION_DDOT = 0

CCSDS_OMM_VERS = 2.0
CREATION_DATE  = 
ORIGINATOR     = 

OBJECT_NAME    = SL-3 R/B
OBJECT_ID      = 1977-057B
CENTER_NAME    = EARTH
REF_FRAME      = TEME
TIME_SYSTEM    = UTC
MEAN_ELEMENT_THEORY = SGP/SGP4

EPOCH          = 2026-01-04T23:15:24.639552
MEAN_MOTION    = 15.43609620
ECCENTRICITY   = .00079704
INCLINATION    = 97.5692
RA_OF_ASC_NODE = 174.2137
ARG_OF_PERICENTER = 145.3124
MEAN_ANOMALY   = 214.8644

EPHEMERIS_TYPE = 0
CLASSIFICATION_TYPE = U
NORAD_CAT_ID   = 10114
ELEMENT_SET_NO = 999
REV_AT_EPOCH   = 65849
BSTAR          = .31249372E-3
MEAN_MOTION_DOT = .13988E-3
MEAN_MOTION_DDOT = 0

CCSDS_OMM_VERS = 2.0
CREATION_DATE  = 
ORIGINATOR     = 

OBJECT_NAME    = SEASAT 1
OBJECT_ID      = 1978-064A
CENTER_NAME    = EARTH
REF_FRAME      = TEME
TIME_SYSTEM    = UTC
MEAN_ELEMENT_THEORY = SGP/SGP4

EPOCH          = 2026-01-04T20:33:07.903872
MEAN_MOTION    = 14.46092661
ECCENTRICITY   = .00012207
INCLINATION    = 108.0144
RA_OF_ASC_NODE = 351.5365
ARG_OF_PERICENTER = 264.5261
MEAN_ANOMALY   = 95.5745

EPHEMERIS_TYPE = 0
CLASSIFICATION_TYPE = U
NORAD_CAT_ID   = 10967
ELEMENT_SET_NO = 999
REV_AT_EPOCH   = 49728
BSTAR          = .22585105E-3
MEAN_MOTION_DOT = .67E-5
MEAN_MOTION_DDOT = 0

CCSDS_OMM_VERS = 2.0
CREATION_DATE  = 
ORIGINATOR     = 

OBJECT_NAME    = SL-14 R/B
OBJECT_ID      = 1979-011B
CENTER_NAME    = EARTH
REF_FRAME      = TEME
TIME_SYSTEM    = UTC
MEAN_ELEMENT_THEORY = SGP/SGP4

EPOCH          = 2026-01-04T22:17:49.975296
MEAN_MOTION    = 14.91807614
ECCENTRICITY   = .00147016
INCLINATION    = 82.5248
RA_OF_ASC_NODE = 157.0512
ARG_OF_PERICENTER = 270.8052
MEAN_ANOMALY   = 89.1484

EPHEMERIS_TYPE = 0
CLASSIFICATION_TYPE = U
NORAD_CAT_ID   = 11267
ELEMENT_SET_NO = 999
REV_AT_EPOCH   = 51927
BSTAR          = .10013402E-3
MEAN_MOTION_DOT = .1036E-4
MEAN_MOTION_DDOT = 0

CCSDS_OMM_VERS = 2.0
CREATION_DATE  = 
ORIGINATOR     = 

OBJECT_NAME    = SL-8 R/B
OBJECT_ID      = 1979-089B
CENTER_NAME    = EARTH
REF_FRAME      = TEME
TIME_SYSTEM    = UTC
MEAN_ELEMENT_THEORY = SGP/SGP4

EPOCH          = 2026-01-04T22:24:48.872736
MEAN_MOTION    = 14.42299294
ECCENTRICITY   = .0015055
INCLINATION    = 74.0673
RA_OF_ASC_NODE = 209.0511
ARG_OF_PERICENTER = 34.1933
MEAN_ANOMALY   = 326.0189

EPHEMERIS_TYPE = 0
CLASSIFICATION_TYPE = U
NORAD_CAT_ID   = 11574
ELEMENT_SET_NO = 999
REV_AT_EPOCH   = 42691
BSTAR          = .98119905E-4
MEAN_MOTION_DOT = .298E-5
MEAN_MOTION_DDOT = 0

CCSDS_OMM_VERS = 2.0
CREATION_DATE  = 
ORIGINATOR     = 

OBJECT_NAME    = SL-14 R/B
OBJECT_ID      = 1980-005B
CENTER_NAME    = EARTH
REF_FRAME      = TEME
TIME_SYSTEM    = UTC
MEAN_ELEMENT_THEORY = SGP/SGP4

EPOCH          = 2026-01-04T23:13:00.552000
MEAN_MOTION    = 14.90826813
ECCENTRICITY   = .00163222
INCLINATION    = 82.5138
RA_OF_ASC_NODE = 7.6668
ARG_OF_PERICENTER = 21.5782
MEAN_ANOMALY   = 338.6122

EPHEMERIS_TYPE = 0
CLASSIFICATION_TYPE = U
NORAD_CAT_ID   = 11672
ELEMENT_SET_NO = 999
REV_AT_EPOCH   = 46699
BSTAR          = .93844249E-4
MEAN_MOTION_DOT = .951E-5
MEAN_MOTION_DDOT = 0

CCSDS_OMM_VERS = 2.0
CREATION_DATE  = 
ORIGINATOR     = 

OBJECT_NAME    = SL-8 R/B
OBJECT_ID      = 1981-003B
CENTER_NAME    = EARTH
REF_FRAME      = TEME
TIME_SYSTEM    = UTC
MEAN_ELEMENT_THEORY = SGP/SGP4

EPOCH          = 2026-01-04T23:17:47.966784
MEAN_MOTION    = 15.07990714
ECCENTRICITY   = .02748945
INCLINATION    = 82.9369
RA_OF_ASC_NODE = 348.8248
ARG_OF_PERICENTER = 40.6047
MEAN_ANOMALY   = 321.5328

EPHEMERIS_TYPE = 0
CLASSIFICATION_TYPE = U
NORAD_CAT_ID   = 12139
ELEMENT_SET_NO = 999
REV_AT_EPOCH   = 30506
BSTAR          = .69908379E-3
MEAN_MOTION_DOT = .26491E-3
MEAN_MOTION_DDOT = 0

CCSDS_OMM_VERS = 2.0
CREATION_DATE  = 
ORIGINATOR     = 

OBJECT_NAME    = SL-3 R/B
OBJECT_ID      = 1981-046B
CENTER_NAME    = EARTH
REF_FRAME      = TEME
TIME_SYSTEM    = UTC
MEAN_ELEMENT_THEORY = SGP/SGP4

EPOCH          = 2026-01-04T22:59:10.037184
MEAN_MOTION    = 15.40194070
ECCENTRICITY   = .00180063
INCLINATION    = 81.2318
RA_OF_ASC_NODE = 6.1487
ARG_OF_PERICENTER = 238.0816
MEAN_ANOMALY   = 121.8675

EPHEMERIS_TYPE = 0
CLASSIFICATION_TYPE = U
NORAD_CAT_ID   = 12465
ELEMENT_SET_NO = 999
REV_AT_EPOCH   = 42861
BSTAR          = .31928193E-3
MEAN_MOTION_DOT = .12925E-3
MEAN_MOTION_DDOT = 0

CCSDS_OMM_VERS = 2.0
CREATION_DATE  = 
ORIGINATOR     = 

OBJECT_NAME    = SL-3 R/B
OBJECT_ID      = 1981-103B
CENTER_NAME    = EARTH
REF_FRAME      = TEME
TIME_SYSTEM    = UTC
MEAN_ELEMENT_THEORY = SGP/SGP4

EPOCH          = 2026-01-04T21:24:49.588704
MEAN_MOTION    = 15.20567072
ECCENTRICITY   = .00137063
INCLINATION    = 81.1606
RA_OF_ASC_NODE = 288.2348
ARG_OF_PERICENTER = 134.5820
MEAN_ANOMALY   = 225.6532

EPHEMERIS_TYPE = 0
CLASSIFICATION_TYPE = U
NORAD_CAT_ID   = 12904
ELEMENT_SET_NO = 999
REV_AT_EPOCH   = 96353
BSTAR          = .30286828E-3
MEAN_MOTION_DOT = .6672E-4
MEAN_MOTION_DDOT = 0

CCSDS_OMM_VERS = 2.0
CREATION_DATE  = 
ORIGINATOR     = 

OBJECT_NAME    = SL-3 R/B
OBJECT_ID      = 1982-013B
CENTER_NAME    = EARTH
REF_FRAME      = TEME
TIME_SYSTEM    = UTC
MEAN_ELEMENT_THEORY = SGP/SGP4

EPOCH          = 2026-01-04T22:17:40.164576
MEAN_MOTION    = 15.21324827
ECCENTRICITY   = .00236335
INCLINATION    = 81.1727
RA_OF_ASC_NODE = 235.4632
ARG_OF_PERICENTER = 36.6322
MEAN_ANOMALY   = 323.6519

EPHEMERIS_TYPE = 0
CLASSIFICATION_TYPE = U
NORAD_CAT_ID   = 13068
ELEMENT_SET_NO = 999
REV_AT_EPOCH   = 39465
BSTAR          = .2219448E-3
MEAN_MOTION_DOT = .503E-4
MEAN_MOTION_DDOT = 0

CCSDS_OMM_VERS = 2.0
CREATION_DATE  = 
ORIGINATOR     = 

OBJECT_NAME    = SL-3 R/B
OBJECT_ID      = 1982-039B
CENTER_NAME    = EARTH
REF_FRAME      = TEME
TIME_SYSTEM    = UTC
MEAN_ELEMENT_THEORY = SGP/SGP4

EPOCH          = 2026-01-04T21:42:51.727104
MEAN_MOTION    = 15.09692115
ECCENTRICITY   = .00296376
INCLINATION    = 81.1702
RA_OF_ASC_NODE = 289.4432
ARG_OF_PERICENTER = 173.7387
MEAN_ANOMALY   = 186.4215

EPHEMERIS_TYPE = 0
CLASSIFICATION_TYPE = U
NORAD_CAT_ID   = 13154
ELEMENT_SET_NO = 999
REV_AT_EPOCH   = 37201
BSTAR          = .23052593E-3
MEAN_MOTION_DOT = .3774E-4
MEAN_MOTION_DDOT = 0

