ATLAS CENTAUR R/B       
1 06155U 72065B   26004.56853218  .00001843  00000+0  25506-3 0  9993
2 06155  35.0032 321.4683 0034102 192.1355 167.8526 14.77483428831774
SL-8 R/B                
1 08459U 75112B   26004.78592089  .00000454  00000+0  15805-3 0  9996
2 08459  74.0609 136.4678 0016672 245.6074 114.3341 14.38163973622685
SL-3 R/B                
1 10114U 77057B   26004.96903518  .00013988  00000+0  31249-3 0  9996
2 10114  97.5692 174.2137 0007970 145.3124 214.8644 15.43609620658492
SEASAT 1                
1 10967U 78064A   26004.85634148  .00000670  00000+0  22585-3 0  9996
2 10967 108.0144 351.5365 0001220 264.5261  95.5745 14.46092661497286
SL-14 R/B               
1 11267U 79011B   26004.92905064  .00001036  00000+0  10013-3 0  9999
2 11267  82.5248 157.0512 0014701 270.8052  89.1484 14.91807614519275
SL-8 R/B                
1 11574U 79089B   26004.93389899  .00000298  00000+0  98120-4 0  9993
2 11574  74.0673 209.0511 0015055  34.1933 326.0189 14.42299294426911
SL-14 R/B               
1 11672U 80005B   26004.96736750  .00000951  00000+0  93844-4 0  9991
2 11672  82.5138   7.6668 0016322  21.5782 338.6122 14.90826813466999
SL-8 R/B                
1 12139U 81003B   26004.97069406  .00026491  00000+0  69908-3 0  9997
2 12139  82.9369 348.8248 0274894  40.6047 321.5328 15.07990714305068
SL-3 R/B                
1 12465U 81046B   26004.95775506  .00012925  00000+0  31928-3 0  9997
2 12465  81.2318   6.1487 0018006 238.0816 121.8675 15.40194070428614
SL-3 R/B                
1 12904U 81103B   26004.89224061  .00006672  00000+0  30287-3 0  9996
2 12904  81.1606 288.2348 0013706 134.5820 225.6532 15.20567072963531
SL-3 R/B                
1 13068U 82013B   26004.92893709  .00005030  00000+0  22194-3 0  9999
2 13068  81.1727 235.4632 0023633  36.6322 323.6519 15.21324827394651
SL-3 R/B                
1 13154U 82039B   26004.90476536  .00003774  00000+0  23053-3 0  9994
2 13154  81.1702 289.4432 0029637 173.7387 186.4215 15.09692115372019
